OBJECT_NAME,OBJECT_ID,EPOCH,MEAN_MOTION,ECCENTRICITY,INCLINATION,RA_OF_ASC_NODE,ARG_OF_PERICENTER,MEAN_ANOMALY,EPHEMERIS_TYPE,CLASSIFICATION_TYPE,NORAD_CAT_ID,ELEMENT_SET_NO,REV_AT_EPOCH,BSTAR,MEAN_MOTION_DOT,MEAN_MOTION_DDOT
ONEWEB-0473,2022-012AH,2026-07-18T18:57:29.668608,13.10374574,.0001848,87.8813,29.9772,90.3209,269.8130,0,U,51653,999,21344,-.17929E-2,-.613E-5,0
ONEWEB-0474,2022-012AJ,2026-07-18T05:55:34.948128,13.10372347,.00016182,87.8821,30.0729,96.0030,264.1282,0,U,51654,999,21336,-.20178361E-2,-.692E-5,0
ONEWEB-0475,2022-012AK,2026-07-18T19:28:58.685376,13.17648068,.0001562,87.9150,359.5815,113.6614,246.4681,0,U,51655,999,21785,-.24302E-4,.3E-7,0
ONEWEB-0490,2022-138A,2026-07-18T19:49:26.356800,13.19725840,.0002081,87.9192,298.6687,106.2164,253.9198,0,U,54113,999,18100,-.2001E-3,-.67E-6,0
ONEWEB-0492,2022-138B,2026-07-18T18:36:38.666592,13.19723907,.0002249,87.9185,298.6781,102.7241,257.4143,0,U,54114,999,18100,.64525E-4,.39E-6,0
ONEWEB-0495,2022-138C,2026-07-18T19:53:59.418816,13.19726297,.0002329,87.9186,298.6702,116.6887,243.4484,0,U,54115,999,18099,.14731E-4,.19E-6,0
ONEWEB-0497,2022-138D,2026-07-18T18:22:59.691360,13.19723825,.0002049,87.9191,298.6767,102.8634,257.2728,0,U,54116,999,18097,.20275E-3,.94E-6,0
ONEWEB-0499,2022-138E,2026-07-18T19:48:18.360000,13.19724664,.0002007,87.9186,298.6717,107.2357,252.8995,0,U,54117,999,18099,.24726E-4,.23E-6,0
ONEWEB-0500,2022-138F,2026-07-18T19:51:43.496064,13.19726957,.0002056,87.9191,298.6679,98.8341,261.3025,0,U,54118,999,18100,.32895E-4,.26E-6,0
ONEWEB-0501,2022-138G,2026-07-18T18:45:46.197216,13.19726037,.0002171,87.9194,298.6768,111.3450,248.7915,0,U,54119,999,18097,.51191E-4,.33E-6,0
ONEWEB-0502,2022-138H,2026-07-18T18:25:15.983904,13.19723631,.0001963,87.9194,298.6687,107.8155,252.3192,0,U,54120,999,18099,.15799E-3,.76E-6,0
ONEWEB-0503,2022-138J,2026-07-18T18:09:21.687264,13.19726694,.0001744,87.9195,298.6777,99.6478,260.4852,0,U,54121,999,18098,.93193E-4,.5E-6,0
ONEWEB-0504,2022-138K,2026-07-18T19:40:20.521344,13.19726147,.0001904,87.9195,298.6691,106.1255,254.0088,0,U,54122,999,18100,.1286E-3,.64E-6,0
ONEWEB-0505,2022-138L,2026-07-18T19:35:46.692096,13.19723252,.0002092,87.9192,298.6702,114.0236,246.1116,0,U,54123,999,18098,.57773E-4,.36E-6,0
ONEWEB-0506,2022-138M,2026-07-18T18:59:25.346976,13.19725126,.0002078,87.9195,298.6732,110.1639,249.9717,0,U,54124,999,18097,-.58125E-4,-.1E-6,0
ONEWEB-0507,2022-138N,2026-07-18T19:28:57.747072,13.19726681,.0002115,87.9186,298.6781,107.0994,253.0370,0,U,54125,999,18102,-.52419E-4,-.8E-7,0
ONEWEB-0508,2022-138P,2026-07-18T19:24:25.555104,13.19726070,.0002277,87.9186,298.6786,109.7679,250.3699,0,U,54126,999,18100,-.44407E-4,-.5E-7,0
ONEWEB-0509,2022-138Q,2026-07-18T18:48:01.737216,13.19724213,.0002077,87.9196,298.6763,105.4809,254.6553,0,U,54127,999,18097,.19695E-4,.21E-6,0
ONEWEB-0510,2022-138R,2026-07-18T17:20:32.061120,13.20770546,.0001912,87.9177,268.1524,84.0777,276.0575,0,U,54128,999,18344,.49661E-4,.33E-6,0
ONEWEB-0511,2022-138S,2026-07-18T18:43:28.315776,13.19723463,.0001789,87.9191,298.6783,105.0550,255.0781,0,U,54129,999,18100,.38588E-4,.28E-6,0
ONEWEB-0512,2022-138T,2026-07-18T18:32:05.563104,13.19724964,.0001957,87.9184,298.6829,110.9002,249.2340,0,U,54130,999,18097,-.44041E-3,-.163E-5,0
ONEWEB-0513,2022-138U,2026-07-18T18:21:28.698336,13.20269878,.0001734,87.9192,298.6246,127.9427,232.1863,0,U,54131,999,18088,.33961E-4,.27E-6,0
ONEWEB-0514,2022-138V,2026-07-18T18:54:50.860224,13.19724834,.0001958,87.9194,298.6760,97.3733,262.7622,0,U,54132,999,18099,-.37421E-3,-.137E-5,0
ONEWEB-0515,2022-138W,2026-07-18T17:01:09.355584,13.20771842,.0002711,87.9186,268.1508,84.5859,275.5583,0,U,54133,999,18346,-.82494E-4,-.21E-6,0
ONEWEB-0516,2022-138X,2026-07-18T18:18:27.311904,13.19724203,.0002155,87.9185,298.6848,101.6164,258.5211,0,U,54134,999,18099,.16892E-3,.81E-6,0
ONEWEB-0517,2022-138Y,2026-07-18T19:38:04.072416,13.19726034,.0001706,87.9192,298.6685,99.5344,260.5982,0,U,54135,999,18100,.17661E-4,.2E-6,0
ONEWEB-0518,2022-138Z,2026-07-18T18:16:11.320896,13.19724437,.000223,87.9187,298.6872,100.2733,259.8652,0,U,54136,999,18099,.59229E-4,.37E-6,0
ONEWEB-0519,2022-138AA,2026-07-18T18:52:34.011264,13.19723680,.0001817,87.9192,298.6759,99.0113,261.1225,0,U,54137,999,18100,.44925E-5,.15E-6,0
ONEWEB-0520,2022-138AB,2026-07-18T19:42:37.048032,13.19725604,.0002109,87.9193,298.6694,107.8979,252.2384,0,U,54138,999,18099,-.41307E-3,-.152E-5,0
ONEWEB-0521,2022-138AC,2026-07-18T18:41:10.989888,13.19725263,.0001797,87.9196,298.6669,97.4214,262.7123,0,U,54139,999,18093,-.44783E-3,-.166E-5,0
